BEIDOU-2 IGSO-1         
1 36828U 10036A   26132.68902604 -.00000041  00000+0  00000+0 0  9990
2 36828  54.2951 163.2807 0058855 224.5644 197.8413  1.00282752 57743
BEIDOU-2 G4             
1 37210U 10057A   26137.13121650 -.00000105  00000+0  00000+0 0  9999
2 37210   3.5695  69.1172 0005781 208.4905 164.4531  1.00271855 56989
BEIDOU-2 IGSO-2         
1 37256U 10068A   26135.72421087 -.00000229  00000+0  00000+0 0  9998
2 37256  47.6108 272.2352 0054345 211.9136 116.2636  1.00294155 56461
BEIDOU-2 IGSO-3         
1 37384U 11013A   26134.75077336 -.00000206  00000+0  00000+0 0  9992
2 37384  62.3634  40.4703 0033942 185.9417  24.6219  1.00276202 55324
BEIDOU-2 IGSO-4         
1 37763U 11038A   26137.05441595  .00000065  00000+0  00000+0 0  9990
2 37763  54.5924 165.9512 0158340 231.2357 308.9707  1.00290692 54338
BEIDOU-2 IGSO-5         
1 37948U 11073A   26136.85233464 -.00000175  00000+0  00000+0 0  9998
2 37948  47.7378 271.9321 0111944 220.5685 141.2978  1.00255472 52827
BEIDOU-2 G5             
1 38091U 12008A   26137.18237169  .00000065  00000+0  00000+0 0  9997
2 38091   3.4962  69.8722 0010964 270.1397  19.1994  1.00272172 52057
BEIDOU-2 M3             
1 38250U 12018A   26136.50815642 -.00000054  00000+0  00000+0 0  9997
2 38250  55.7861 305.9429 0019726 276.4001  83.3542  1.86229899 95350
BEIDOU-2 M4             
1 38251U 12018B   26136.44040786 -.00000053  00000+0  00000+0 0  9999
2 38251  55.6865 305.1615 0010954 280.5939  79.2611  1.86229502 95355
BEIDOU-2 M6             
1 38775U 12050B   26136.15025056 -.00000044  00000+0  00000+0 0  9997
2 38775  56.5176  63.9535 0014302 352.0732   7.8852  1.86230812 92715
BEIDOU-2 G6             
1 38953U 12059A   26136.90228124 -.00000167  00000+0  00000+0 0  9994
2 38953   4.3420  73.8472 0010254 320.0984 249.5555  1.00270875 49594
BEIDOU-3S IGSO-1S       
1 40549U 15019A   26136.91622043 -.00000186  00000+0  00000+0 0  9997
2 40549  49.2552 295.8370 0037990 190.0419 172.4426  1.00256770 40768
BEIDOU-3S M2S           
1 40748U 15037A   26136.10634049 -.00000053  00000+0  00000+0 0  9991
2 40748  54.8996 303.1506 0007606 266.3231  93.5670  1.86232017 73523
BEIDOU-3S M1S           
1 40749U 15037B   26134.70702215 -.00000049  00000+0  00000+0 0  9992
2 40749  54.8981 303.1861 0004118  56.2797 303.7422  1.86254777 73506
BEIDOU-3S IGSO-2S       
1 40938U 15053A   26136.81413965 -.00000163  00000+0  00000+0 0  9992
2 40938  49.2723 259.1558 0064718 190.9616 173.9397  1.00266682 39042
BEIDOU-2 IGSO-6         
1 41434U 16021A   26136.69608406 -.00000172  00000+0  00000+0 0  9992
2 41434  60.1837  38.3538 0057257 232.4199 308.6927  1.00264456 37169
BEIDOU-2 G7             
1 41586U 16037A   26136.97886399 -.00000344  00000+0  00000+0 0  9998
2 41586   1.6424  69.0282 0007325 359.0605 269.5255  1.00267389  6573
BEIDOU-3 M1             
1 43001U 17069A   26133.76780652 -.00000035  00000+0  00000+0 0  9994
2 43001  56.6631  64.2188 0011641 320.5367  39.3602  1.86231382 57969
BEIDOU-3 M2             
1 43002U 17069B   26133.16952611 -.00000032  00000+0  00000+0 0  9992
2 43002  56.6620  64.2738 0009693 344.6836  15.2699  1.86229936 57940
BEIDOU-3 M7             
1 43107U 18003A   26136.66985338 -.00000056  00000+0  00000+0 0  9993
2 43107  54.3572 303.4141 0005200  86.1202 273.9154  1.86228144 56766
BEIDOU-3 M8             
1 43108U 18003B   26132.85647029 -.00000043  00000+0  00000+0 0  9999
2 43108  54.3540 303.5291 0002179 277.0252  82.9401  1.86231209 56700
BEIDOU-3 M4             
1 43207U 18018A   26135.44695527 -.00000042  00000+0  00000+0 0  9998
2 43207  56.6235  64.2285 0007863   8.9950 350.9990  1.86231263 56139
BEIDOU-3 M3             
1 43208U 18018B   26136.05036845 -.00000043  00000+0  00000+0 0  9990
2 43208  56.6232  64.2126 0009570 334.4233  25.5099  1.86231106 56141
BEIDOU-3 M9             
1 43245U 18029A   26136.80499488 -.00000054  00000+0  00000+0 0  9994
2 43245  54.2232 301.0460 0000871 106.9869 252.9960  1.86228112 55315
BEIDOU-3 M10            
1 43246U 18029B   26136.73951295 -.00000054  00000+0  00000+0 0  9996
2 43246  54.2213 301.0752 0004491  37.4098 322.5949  1.86229262 55298
BEIDOU-2 IGSO-7         
1 43539U 18057A   26136.48051824  .00000012  00000+0  00000+0 0  9996
2 43539  55.1881 163.3357 0104086 237.8264 118.0001  1.00260989 28807
BEIDOU-3 M5             
1 43581U 18062A   26135.35288752  .00000098  00000+0  00000+0 0  9990
2 43581  54.0836 183.4210 0005013 287.6962  72.3442  1.86228530 53024
BEIDOU-3 M6             
1 43582U 18062B   26136.29011596  .00000094  00000+0  00000+0 0  9991
2 43582  54.0833 183.3783 0004761  15.4791 344.6307  1.86227494 53047
BEIDOU-3 M11            
1 43603U 18067B   26134.75259480  .00000100  00000+0  00000+0 0  9993
2 43603  54.1758 182.1382 0004429  17.6934 342.4159  1.86227418 52523
BEIDOU-3 M13            
1 43622U 18072A   26133.63367348 -.00000035  00000+0  00000+0 0  9997
2 43622  56.5956  63.8000 0008352 321.7173  38.2058  1.86231484 52015
