OBJECT_NAME,OBJECT_ID,EPOCH,MEAN_MOTION,ECCENTRICITY,INCLINATION,RA_OF_ASC_NODE,ARG_OF_PERICENTER,MEAN_ANOMALY,EPHEMERIS_TYPE,CLASSIFICATION_TYPE,NORAD_CAT_ID,ELEMENT_SET_NO,REV_AT_EPOCH,BSTAR,MEAN_MOTION_DOT,MEAN_MOTION_DDOT
BEIDOU-2 IGSO-1 (C06),2010-036A,2026-05-12T16:32:11.849856,1.00282752,.00588559,54.2951,163.2807,224.5644,197.8413,0,U,36828,999,5774,0,-.41E-6,0
BEIDOU-2 G4 (C04),2010-057A,2026-05-17T03:08:57.105600,1.00271855,.0005781,3.5695,69.1172,208.4905,164.4531,0,U,37210,999,5698,0,-.105E-5,0
BEIDOU-2 IGSO-2 (C07),2010-068A,2026-05-15T17:22:51.819168,1.00294155,.00543457,47.6108,272.2352,211.9136,116.2636,0,U,37256,999,5646,0,-.229E-5,0
BEIDOU-2 IGSO-3 (C08),2011-013A,2026-05-14T18:01:06.818304,1.00276202,.00339423,62.3634,40.4703,185.9417,24.6219,0,U,37384,999,5532,0,-.206E-5,0
BEIDOU-2 IGSO-4 (C09),2011-038A,2026-05-17T01:18:21.538080,1.00290692,.015834,54.5924,165.9512,231.2357,308.9707,0,U,37763,999,5433,0,.65E-6,0
BEIDOU-2 IGSO-5 (C10),2011-073A,2026-05-16T20:27:21.712896,1.00255472,.01119447,47.7378,271.9321,220.5685,141.2978,0,U,37948,999,5282,0,-.175E-5,0
BEIDOU-2 G5 (C05),2012-008A,2026-05-17T04:22:36.914016,1.00272172,.0010964,3.4962,69.8722,270.1397,19.1994,0,U,38091,999,5205,0,.65E-6,0
BEIDOU-2 M3 (C11),2012-018A,2026-05-16T12:11:44.714688,1.86229899,.0019726,55.7861,305.9429,276.4001,83.3542,0,U,38250,999,9535,0,-.54E-6,0
BEIDOU-2 M4 (C12),2012-018B,2026-05-16T10:34:11.239104,1.86229502,.0010954,55.6865,305.1615,280.5939,79.2611,0,U,38251,999,9535,0,-.53E-6,0
BEIDOU-2 M6 (C14),2012-050B,2026-05-16T03:36:21.648384,1.86230812,.00143025,56.5176,63.9535,352.0732,7.8852,0,U,38775,999,9271,0,-.44E-6,0
BEIDOU-2 G6 (C02),2012-059A,2026-05-16T21:39:17.099136,1.00270875,.0010254,4.3420,73.8472,320.0984,249.5555,0,U,38953,999,4959,0,-.167E-5,0
BEIDOU-3S IGSO-1S (C31),2015-019A,2026-05-16T21:59:21.445152,1.00256770,.003799,49.2552,295.8370,190.0419,172.4426,0,U,40549,999,4076,0,-.186E-5,0
BEIDOU-3S M2S (C58),2015-037A,2026-05-16T02:33:07.818336,1.86232017,.00076067,54.8996,303.1506,266.3231,93.5670,0,U,40748,999,7352,0,-.53E-6,0
BEIDOU-3S M1S (C57),2015-037B,2026-05-14T16:58:06.713760,1.86254777,.00041182,54.8981,303.1861,56.2797,303.7422,0,U,40749,999,7350,0,-.49E-6,0
BEIDOU-3S IGSO-2S (C56),2015-053A,2026-05-16T19:32:21.665760,1.00266682,.00647187,49.2723,259.1558,190.9616,173.9397,0,U,40938,999,3904,0,-.163E-5,0
BEIDOU-2 IGSO-6 (C13),2016-021A,2026-05-16T16:42:21.662784,1.00264456,.00572573,60.1837,38.3538,232.4199,308.6927,0,U,41434,999,3716,0,-.172E-5,0
BEIDOU-2 G7 (C03),2016-037A,2026-05-16T23:29:33.848736,1.00267389,.0007325,1.6424,69.0282,359.0605,269.5255,0,U,41586,999,657,0,-.344E-5,0
BEIDOU-3 M1 (C19),2017-069A,2026-05-13T18:25:38.483328,1.86231382,.00116416,56.6631,64.2188,320.5367,39.3602,0,U,43001,999,5796,0,-.35E-6,0
BEIDOU-3 M2 (C20),2017-069B,2026-05-13T04:04:07.055904,1.86229936,.0009693,56.6620,64.2738,344.6836,15.2699,0,U,43002,999,5794,0,-.32E-6,0
BEIDOU-3 M7 (C27),2018-003A,2026-05-16T16:04:35.332032,1.86228144,.00052,54.3572,303.4141,86.1202,273.9154,0,U,43107,999,5676,0,-.56E-6,0
BEIDOU-3 M8 (C28),2018-003B,2026-05-12T20:33:19.033056,1.86231209,.0002179,54.3540,303.5291,277.0252,82.9401,0,U,43108,999,5670,0,-.43E-6,0
BEIDOU-3 M4 (C22),2018-018A,2026-05-15T10:43:36.935328,1.86231263,.00078631,56.6235,64.2285,8.9950,350.9990,0,U,43207,999,5613,0,-.42E-6,0
BEIDOU-3 M3 (C21),2018-018B,2026-05-16T01:12:31.834080,1.86231106,.000957,56.6232,64.2126,334.4233,25.5099,0,U,43208,999,5614,0,-.43E-6,0
BEIDOU-3 M9 (C29),2018-029A,2026-05-16T19:19:11.557632,1.86228112,.0000871,54.2232,301.0460,106.9869,252.9960,0,U,43245,999,5531,0,-.54E-6,0
BEIDOU-3 M10 (C30),2018-029B,2026-05-16T17:44:53.918880,1.86229262,.0004491,54.2213,301.0752,37.4098,322.5949,0,U,43246,999,5529,0,-.54E-6,0
BEIDOU-2 IGSO-7 (C16),2018-057A,2026-05-16T11:31:56.775936,1.00260989,.0104086,55.1881,163.3357,237.8264,118.0001,0,U,43539,999,2880,0,.12E-6,0
BEIDOU-3 M5 (C23),2018-062A,2026-05-15T08:28:09.481728,1.86228530,.00050131,54.0836,183.4210,287.6962,72.3442,0,U,43581,999,5302,0,.98E-6,0
BEIDOU-3 M6 (C24),2018-062B,2026-05-16T06:57:46.018944,1.86227494,.0004761,54.0833,183.3783,15.4791,344.6307,0,U,43582,999,5304,0,.94E-6,0
BEIDOU-3 M11 (C25),2018-067B,2026-05-14T18:03:44.190720,1.86227418,.00044291,54.1758,182.1382,17.6934,342.4159,0,U,43603,999,5252,0,.1E-5,0
BEIDOU-3 M13 (C32),2018-072A,2026-05-13T15:12:29.388672,1.86231484,.0008352,56.5956,63.8000,321.7173,38.2058,0,U,43622,999,5201,0,-.35E-6,0
